C/2019 F2 (ATLAS),e,19.2945,175.4105,11.6421,16.59623,0.0145777,0.86468656,22.4718,11/27.0/2023,2000,g 12.0,4.0
# From MPEC 2021-P47
A/2019 G2,e,159.2185,208.1678,82.6229,415.8267,0.0001162,0.99447833,0.0000,12/07.9381/2019,2000,g 16.5,2.0
# From MPEC 2022-VC5
A/2019 G3,e,156.8040,49.9124,161.8714,17.18389,0.0138364,0.83451300,25.1600,11/27.0/2023,2000,g 17.1,2.0
# From MPC114607
P/2019 GG21 (PANSTARRS),e,6.0867,340.5607,208.5797,7.467793,0.0482965,0.47178541,80.2774,11/27.0/2023,2000,g 12.0,4.0
# From MPEC 2022-M21
C/2019 H1 (NEOWISE),e,104.4122,269.2900,19.3168,242.8445,0.0002604,0.99240863,0.0000,04/27.8581/2019,2000,g 15.5,4.0
# From MPEC 2023-A50
C/2019 J1 (Lemmon),e,24.5340,98.1891,167.7026,67.80915,0.0017651,0.96334212,2.9916,11/27.0/2023,2000,g 12.0,4.0
# From MPEC 2021-R75
C/2019 J2 (Palomar),e,5.2604,25.5352,98.6809,161.0451,0.0004823,0.98930985,0.0000,07/20.3547/2019,2000,g 13.0,4.0
# From MPC117071
C/2019 J3 (ATLAS),h,08/02.4911/2019,131.3278,270.6275,16.5842,1.000506,2.368275,2000,13.5,4.0
# From MPEC 2022-M21
C/2019 JU6 (ATLAS),h,06/02.3035/2019,148.3305,21.7636,94.9589,1.000085,2.041154,2000,14.5,4.0
# From MPEC 2022-O08
C/2019 K1 (ATLAS),e,87.0308,73.3212,265.7354,6404,0.0000019,0.99968532,0.0000,02/12.3648/2020,2000,g 10.0,4.0
# From MPC119997
C/2019 K4 (Ye),e,105.2969,180.1730,139.9314,1454,0.0000178,0.99843816,0.0000,06/15.4101/2019,2000,g 12.5,4.0
# From MPEC 2021-P47
C/2019 K5 (Young),e,15.3143,177.1870,175.1356,169.5610,0.0004464,0.98793427,0.0000,06/22.7678/2019,2000,g 13.0,4.0
# From MPEC 2021-P47
C/2019 K6 (PANSTARRS),e,132.3795,43.0025,187.5455,1321,0.0000205,0.99703171,0.0000,05/19.7403/2020,2000,g 11.5,4.0
# From MPEC 2023-R20
C/2019 K7 (Smith),h,06/17.6622/2020,103.5190,307.9867,27.4095,1.000997,4.478258,2000,6.0,4.0
# From MPEC 2021-R75
C/2019 K8 (ATLAS),e,93.1143,291.0247,85.3616,2279,0.0000091,0.99859862,0.0000,07/21.4752/2019,2000,g 11.5,4.0
# From MPEC 2023-A50
C/2019 L1 (PANSTARRS),e,9.9762,254.4291,50.0617,9.836622,0.0319474,0.70499828,50.1596,11/27.0/2023,2000,g 13.5,4.0
# From MPC115886
C/2019 L2 (NEOWISE),e,152.2049,12.5522,18.8604,25.08553,0.0078446,0.93517538,13.3331,11/27.0/2023,2000,g 16.0,4.0
# From MPEC 2023-HD1
P/2019 LD2 (ATLAS),e,11.6115,179.5156,118.8933,5.207005,0.0829511,0.12676480,113.7741,11/27.0/2023,2000,g 12.0,4.0
# From MPEC 2023-R20
C/2019 L3 (ATLAS),h,01/09.7575/2022,48.3457,290.7600,171.6430,1.002367,3.554684,2000,4.5,4.0
# From MPEC 2020-K19
P/2019 LM4 (Palomar),e,36.4157,72.8379,68.2815,5.705357,0.0723236,0.58515232,117.3792,11/27.0/2023,2000,g  9.5,4.0
# From MPC118095
C/2019 LB7 (Kleyna),e,164.2902,3.9031,336.6332,34.78765,0.0048036,0.92830216,8.1980,11/27.0/2023,2000,g 17.0,4.0
# From MPEC 2022-O08
P/2019 M2 (ATLAS),e,12.2693,307.5899,332.5583,3.029474,0.1869189,0.64729197,302.7700,11/27.0/2023,2000,g 21.2,4.0
# From MPC118095
C/2019 M3 (ATLAS),e,99.5461,154.9555,87.9108,5180,0.0000026,0.99953208,0.0000,12/31.5462/2018,2000,g 12.2,4.0
# From MPEC 2023-JA2
C/2019 M4 (TESS),h,09/11.9819/2019,65.6786,52.6492,260.3734,1.002991,9.189398,2000,5.0,4.0
# From MPEC 2023-C45
C/2019 N1 (ATLAS),e,82.4390,13.5667,193.3919,1286,0.0000214,0.99867441,0.0000,12/01.0510/2020,2000,g  7.5,4.0
# From MPEC 2023-CD8
A/2019 N2,e,89.3628,276.1624,347.1756,1514,0.0000167,0.99871398,0.0000,08/22.6965/2019,2000,g 12.5,2.0
# From MPEC 2022-A21
C/2019 NJ3 (Lemmon),h,10/22.7673/2020,99.4018,142.4793,246.8962,1.001963,4.363555,2000,9.0,4.0
# From MPEC 2023-SQ0
A/2019 O2,e,93.3123,48.2577,129.6198,58.19224,0.0022203,0.83360969,0.5200,11/27.0/2023,2000,g  9.5,2.0
# From MPEC 2023-VM5
C/2019 O3 (Palomar),h,03/09.6558/2021,89.8143,300.4390,60.1337,1.004367,8.821366,2000,3.5,4.0
# From MPEC 2021-P47
A/2019 O4,e,15.0924,354.9278,61.9202,33.30694,0.0051275,0.89039775,7.1024,11/27.0/2023,2000,g 15.5,2.0
# From MPEC 2023-A50
C/2019 Q1 (Lemmon),h,07/21.1237/2020,155.7316,42.4561,56.2269,1.001331,5.004566,2000,8.5,4.0
# From MPC117072
A/2019 Q2,e,159.0217,188.0271,176.4336,58.21258,0.0022191,0.97829009,0.0000,07/22.3388/2019,2000,g 18.0,2.0
# From MPC117072
P/2019 S2 (PANSTARRS),e,10.4653,93.1878,217.1055,4.744360,0.0953757,0.20526806,165.9698,11/27.0/2023,2000,g 13.5,4.0
# From MPEC 2022-CN4
P/2019 S3 (PANSTARRS),e,8.6944,150.1717,213.0533,3.415233,0.1561614,0.47109160,242.4231,11/27.0/2023,2000,g 18.3,4.0
# From MPEC 2021-S45
C/2019 S4 (Lemmon),e,92.1003,63.1577,71.3707,237.6989,0.0002689,0.98551876,0.0000,04/08.2822/2020,2000,g 11.0,4.0
# From MPEC 2023-N01
A/2019 T1,e,120.8690,6.9447,91.0611,38.82805,0.0040737,0.88976540,4.2612,11/27.0/2023,2000,g 13.0,2.0
# From MPEC 2023-R20
C/2019 T2 (Lemmon),e,111.4537,155.6540,239.4295,5049,0.0000027,0.99947599,0.0000,04/22.6331/2021,2000,g  9.0,4.0
# From MPEC 2023-UR6
C/2019 T3 (ATLAS),e,121.8391,139.5324,112.4568,3414,0.0000049,0.99825659,0.0000,03/04.3011/2021,2000,g  6.8,4.0
# From MPEC 2023-W26
C/2019 T4 (ATLAS),e,53.6311,199.9376,351.1451,912.5949,0.0000358,0.99535278,0.0000,06/08.7988/2022,2000,g  5.0,4.0
# From MPEC 2021-P47
P/2019 T5 (ATLAS),e,33.4890,247.6155,189.5755,7.999594,0.0435614,0.80973978,68.7250,11/27.0/2023,2000,g 15.0,4.0
# From MPEC 2021-P47
P/2019 T6 (PANSTARRS),e,18.6977,71.2527,328.9911,5.439076,0.0776992,0.62307972,114.9246,11/27.0/2023,2000,g 15.5,4.0
# From MPC118096
P/2019 U4 (PANSTARRS),e,11.6990,200.0207,181.0324,3.519874,0.1492497,0.47602188,228.1855,11/27.0/2023,2000,g 19.0,4.0
# From MPEC 2023-W26
C/2019 U5 (PANSTARRS),h,03/29.7561/2023,113.5169,2.6353,181.4786,1.001168,3.624009,2000,4.5,4.0
# From MPEC 2022-H04
C/2019 U6 (Lemmon),e,60.9675,235.7854,329.5272,326.0564,0.0001674,0.99720277,0.0000,06/18.3131/2020,2000,g 10.0,4.0
# From MPEC 2022-N37
C/2019 V1 (Borisov),e,61.9247,83.1536,51.1684,1684,0.0000143,0.99816291,0.0000,07/16.6402/2020,2000,g 11.0,4.0
# From MPEC 2022-L66
P/2019 V2 (Groeller),e,11.8079,189.1808,335.6799,7.496809,0.0480164,0.33121193,54.5524,11/27.0/2023,2000,g 10.0,4.0
# From MPEC 2023-A50
P/2019 W1 (PANSTARRS),e,23.4757,35.3767,18.7654,4.548858,0.1015899,0.26726827,168.8458,11/27.0/2023,2000,g 12.9,4.0
# From MPEC 2021-P47
P/2019 X1 (Pruyne),e,10.2505,43.6793,36.8230,6.175101,0.0642300,0.30387363,102.0099,11/27.0/2023,2000,g 10.4,4.0
# From MPEC 2020-C98
P/2019 X2 (Pan-STARRS),e,15.8950,250.8390,213.4482,3.636290,0.1421400,0.49996181,205.8441,11/27.0/2023,2000,g 18.0,4.0
# From MPC119999
C/2019 Y1 (ATLAS),e,73.3832,31.5437,57.9143,86.97531,0.0012151,0.99047540,0.0000,03/16.2803/2020,2000,g 13.7,4.0
# From MPEC 2020-C98
P/2019 Y3 (Catalina),e,24.6037,139.3075,2.5840,3.013972,0.1883629,0.69114378,272.9362,11/27.0/2023,2000,g 18.5,4.0
# From MPEC 2022-YN2
C/2019 Y4 (ATLAS),e,45.1420,120.6973,177.4489,350.4623,0.0001502,0.99926983,0.0000,05/30.7032/2020,2000,g 11.8,6.0
# From MPEC 2020-L06
C/2019 Y4-A (ATLAS),h,05/30.7339/2020,45.5830,121.0602,177.2825,1.001416,0.254052,2000,11.6,6.0
# From MPEC 2023-J29
C/2019 Y4-B (ATLAS),h,05/30.7094/2020,45.2723,120.8038,177.3929,1.000014,0.255365,2000,12.1,6.0
# From MPEC 2020-L06
C/2019 Y4-C (ATLAS),h,05/30.6868/2020,45.3656,120.7870,177.3157,1.002142,0.255124,2000,12.7,6.0
# From MPEC 2020-L06
C/2019 Y4-D (ATLAS),e,45.4123,121.1581,177.4543,68.31208,0.0017457,0.99627534,0.0000,05/30.8107/2020,2000,g 12.5,6.0
# From MPEC 2023-A50
C/2019 Y5 (PANSTARRS),e,82.7618,51.7508,303.5875,732.7324,0.0000497,0.99328117,0.0000,08/17.6717/2019,2000,g 11.0,4.0
# From MPEC 2023-A50
A/2020 A1,e,149.0349,119.1680,302.4620,25.57765,0.0076193,0.93484435,11.0944,11/27.0/2023,2000,g 18.0,2.0
# From MPEC 2022-YN2
C/2020 A2 (Iwamoto),e,120.5908,286.2667,68.0577,1276,0.0000216,0.99923671,0.0000,01/08.3808/2020,2000,g 13.5,4.0
# From MPEC 2023-A50
C/2020 A3 (ATLAS),h,06/28.7743/2019,146.6552,120.8050,268.3332,1.000485,5.757423,2000,8.0,4.0
# From MPEC 2022-P91
P/2020 A4 (PANSTARRS-Lemmon),e,24.9914,312.3627,144.7756,8.195110,0.0420119,0.65422306,61.5327,11/27.0/2023,2000,g 15.0,4.0
# From MPEC 2020-N08
A/2020 B1,e,18.5210,309.9312,154.7288,51.53350,0.0026642,0.96624945,3.8134,11/27.0/2023,2000,g 21.0,2.0
# From MPEC 2020-HN5
C/2020 B2 (Lemmon),e,55.7530,354.2855,143.5983,67.66656,0.0017707,0.95921590,2.4796,11/27.0/2023,2000,g 10.0,4.0
# From MPEC 2022-N37
C/2020 B3 (Rankin),e,20.7089,185.8357,324.8863,936.3109,0.0000344,0.99643986,0.0000,10/19.6199/2019,2000,g 13.0,4.0
# From MPEC 2023-KD6
P/2020 B4 (Sheppard),e,11.6083,185.9770,342.0079,7.967081,0.0438284,0.19199319,32.3715,11/27.0/2023,2000,g 10.5,4.0
# From MPEC 2023-W26
C/2020 F2 (ATLAS),h,07/14.3117/2022,163.5892,250.2986,48.3068,1.005041,8.815810,2000,4.5,4.0
# From MPEC 2021-O56
C/2020 F3 (NEOWISE),e,29.1027,61.0835,37.3040,362.5874,0.0001428,0.99918954,0.0000,07/04.0427/2020,2000,g  7.5,5.2
# From MPEC 2023-W26
C/2020 F5 (MASTER),e,52.2062,350.5005,310.6810,172.5811,0.0004347,0.97493436,0.0000,03/17.2225/2021,2000,g  6.5,3.2
# From MPEC 2020-L06
C/2020 F6 (PANSTARRS),e,174.5831,207.9015,344.4983,387.2151,0.0001294,0.99095413,0.0000,04/11.5741/2020,2000,g 14.5,2.8
# From MPEC 2023-J95
C/2020 F7 (Lemmon),e,93.9547,321.8590,227.9473,561.1337,0.0000741,0.99049722,0.0000,11/13.6380/2021,2000,g  7.0,4.0
# From MPEC 2023-J29
C/2020 F8 (SWAN),h,05/27.0486/2020,110.5969,259.8497,68.0755,1.000163,0.429774,2000,10.0,4.0
# From MPEC 2020-L06
P/2020 G1 (Pimentel),e,18.5099,240.1075,207.6160,3.607947,0.1438182,0.86057593,194.0177,11/27.0/2023,2000,g 17.0,4.0
# From MPEC 2022-YB4
C/2020 H2 (Pruyne),e,124.8641,277.6691,26.6439,187.1440,0.0003850,0.99556344,0.0000,04/27.7879/2020,2000,g 14.0,3.2
# From MPEC 2020-HM1
C/2020 H3 (Wierzchos),p,06/05.7162/2020,62.5292,30.4456,2.300288,270.6227,2000,13.5,4.0
# From MPEC 2020-L06
C/2020 H4 (Leonard),e,84.4992,307.6217,117.5130,47.82365,0.0029802,0.98066833,0.0000,08/29.6241/2020,2000,g 15.0,3.2
# From MPEC 2023-VM5
C/2020 H5 (Robinson),e,70.2561,210.6276,326.3120,4228,0.0000036,0.99779070,0.0000,12/10.3864/2020,2000,g  5.0,4.0
# From MPEC 2023-SQ0
C/2020 H6 (ATLAS),e,79.9779,213.7207,20.2742,4414,0.0000034,0.99893503,0.0000,09/30.4133/2021,2000,g  8.0,3.2
# From MPEC 2020-KB7
